NOAA 15                 
1 25338U 98030A   24157.17316195  .00000391  00000+0  17974-3 0  9996
2 25338  98.5688 184.5508 0010304   7.1797 352.9529 14.26594168355720
DMSP 5D-3 F16 (USA 172) 
1 28054U 03048A   24157.25214123  .00000178  00000+0  11771-3 0  9998
2 28054  99.0203 163.6090 0008461  87.2299 283.4433 14.14032809 64598
NOAA 18                 
1 28654U 05018A   24157.17219452  .00000364  00000+0  21752-3 0  9991
2 28654  98.8743 234.2366 0015368  97.7308 262.5610 14.13223125981564
METEOSAT-9 (MSG-2)      
1 28912U 05049B   24156.85517789  .00000124  00000+0  00000+0 0  9993
2 28912   7.6596  60.9763 0001218 351.8617 194.4841  1.00272025 67600
EWS-G1 (GOES 13)        
1 29155U 06018A   24157.11707514 -.00000100  00000+0  00000+0 0  9992
2 29155   2.5957  85.4271 0082483 254.9218 240.1137  0.99104858 66043
DMSP 5D-3 F17 (USA 191) 
1 29522U 06050A   24157.16123522  .00000213  00000+0  13375-3 0  9999
2 29522  98.7436 167.9861 0010519  20.7386 339.4212 14.14482651907498
FENGYUN 3A              
1 32958U 08026A   24157.11716495  .00000260  00000+0  14470-3 0  9992
2 32958  98.6037 104.5856 0009862 105.2090 255.0178 14.19098551830241
FENGYUN 2E              
1 33463U 08066A   24156.91799069 -.00000127  00000+0  00000+0 0  9996
2 33463   7.5581  60.6814 0002191  36.9749 231.0233  0.99118913 56649
NOAA 19                 
1 33591U 09005A   24157.19267422  .00000305  00000+0  18814-3 0  9999
2 33591  99.0476 212.8646 0013138 329.9211  30.1205 14.13019266789930
GOES 14                 
1 35491U 09033A   24156.89587007 -.00000062  00000+0  00000+0 0  9996
2 35491   0.3116 105.4567 0003555 344.0504  18.2281  1.00272205 54674
DMSP 5D-3 F18 (USA 210) 
1 35951U 09057A   24157.23565333  .00000408  00000+0  23725-3 0  9996
2 35951  98.8131 132.7468 0010660 194.9650 165.1209 14.14130751754673
EWS-G2 (GOES 15)        
1 36411U 10008A   24156.85118978  .00000041  00000+0  00000+0 0  9992
2 36411   0.2693  89.8783 0001706 108.8126  62.9878  1.00266979 52197
COMS 1                  
1 36744U 10032A   24156.94316623 -.00000342  00000+0  00000+0 0  9990
2 36744   2.9045  84.5510 0000683 349.4973 287.4671  1.00270320 51214
FENGYUN 3B              
1 37214U 10059A   24157.25471390  .00000195  00000+0  12536-3 0  9996
2 37214  99.0552 185.1807 0023099 125.0203 301.3576 14.14501940702569
SUOMI NPP               
1 37849U 11061A   24157.13075125  .00000184  00000+0  10792-3 0  9997
2 37849  98.7221  95.2918 0000847  57.8655 302.2603 14.19578641653153
FENGYUN 2F              
1 38049U 12002A   24156.86706841 -.00000357  00000+0  00000+0 0  9991
2 38049   5.5649  73.2564 0002558  88.7583 156.0607  1.00264363 45437
METEOSAT-10 (MSG-3)     
1 38552U 12035B   24156.91771272 -.00000003  00000+0  00000+0 0  9990
2 38552   2.9391  60.9050 0001599 291.8245 231.6776  1.00275821 43414
METOP-B                 
1 38771U 12049A   24157.13718933  .00000261  00000+0  13877-3 0  9993
2 38771  98.6277 214.6303 0001834  85.7011 274.4376 14.21546757607833
INSAT-3D                
1 39216U 13038B   24156.93394184 -.00000153  00000+0  00000+0 0  9993
2 39216   0.0146 342.2324 0001016 287.4814  42.4598  1.00270471 39631
FENGYUN 3C              
1 39260U 13052A   24157.22700165  .00000176  00000+0  10950-3 0  9994
2 39260  98.4281 157.4678 0011203   8.4064 351.7296 14.16212175553636
METEOR-M 2              
1 40069U 14037A   24157.20095616  .00000235  00000+0  12753-3 0  9992
2 40069  98.4359 151.9751 0006565  42.9528 317.2162 14.20973072513927
HIMAWARI-8              
1 40267U 14060A   24156.94560286 -.00000272  00000+0  00000+0 0  9998
2 40267   0.0295  90.4091 0000666 355.4084 289.1307  1.00270573 35426
FENGYUN 2G              
1 40367U 14090A   24156.91831323 -.00000301  00000+0  00000+0 0  9995
2 40367   3.7606  81.6748 0002927 116.5716 125.8604  1.00275399 34598
METEOSAT-11 (MSG-4)     
1 40732U 15034A   24156.91945317  .00000066  00000+0  00000+0 0  9996
2 40732   1.3573  68.8019 0001595 155.8465   9.4781  1.00275221   406
ELEKTRO-L 2             
1 41105U 15074A   24156.62849069 -.00000114  00000+0  00000+0 0  9995
2 41105   4.8111  79.6164 0000725 177.2331 208.4974  1.00271586 31063
INSAT-3DR               
1 41752U 16054A   24157.07548110 -.00000073  00000+0  00000+0 0  9999
2 41752   0.1679  92.3124 0010493 179.3754  83.4582  1.00271088 28353
HIMAWARI-9              
1 41836U 16064A   24156.37279807 -.00000271  00000+0  00000+0 0  9999
2 41836   0.0372 250.6251 0001147 230.3384  47.2694  1.00271101 27760
GOES 16                 
1 41866U 16071A   24155.61453774 -.00000244  00000+0  00000+0 0  9993
2 41866   0.0571 260.4128 0000209 153.8546 344.3152  1.00271440 27646
FENGYUN 4A              
1 41882U 16077A   24156.91168691 -.00000199  00000+0  00000+0 0  9991
2 41882   0.4284  85.3790 0007931 343.7256 240.0073  1.00269674 27487
CYGFM05                 
1 41884U 16078A   24156.98513423  .00012343  00000+0  45754-3 0  9990
2 41884  34.9536  18.3258 0010815  83.4126 276.7819 15.26757000414319
CYGFM04                 
1 41885U 16078B   24156.91487981  .00012345  00000+0  44520-3 0  9995
2 41885  34.9465   2.9590 0008180 105.0178 255.1443 15.27682252414297
CYGFM02                 
1 41886U 16078C   24156.94206438  .00012642  00000+0  45136-3 0  9999
2 41886  34.9541   5.0703 0011202  95.4687 264.7307 15.27981420414383
CYGFM01                 
1 41887U 16078D   24156.89989832  .00011255  00000+0  42119-3 0  9997
2 41887  34.9521  22.6741 0011025  67.1301 293.0577 15.26457406414139
CYGFM08                 
1 41888U 16078E   24156.92548826  .00012324  00000+0  44676-3 0  9994
2 41888  34.9518  10.8078 0011368  94.1172 266.0843 15.27483778414312
CYGFM07                 
1 41890U 16078G   24156.90522637  .00012270  00000+0  44094-3 0  9991
2 41890  34.9520   2.4296 0007956 102.7949 257.3655 15.27800598414309
CYGFM03                 
1 41891U 16078H   24156.93944926  .00012559  00000+0  45244-3 0  9992
2 41891  34.9509   3.3857 0009220  89.5188 270.6583 15.27706225414291
FENGYUN 3D              
1 43010U 17072A   24157.18131300  .00000180  00000+0  10709-3 0  9999
2 43010  98.9102 111.7660 0002151  42.7646 317.3696 14.19352050339717
NOAA 20 (JPSS-1)        
1 43013U 17073A   24157.14854090  .00000136  00000+0  85245-4 0  9996
2 43013  98.7063  95.2716 0000349 131.5717 228.5489 14.19592392339195
GOES 17                 
1 43226U 18022A   24156.87410316 -.00000087  00000+0  00000+0 0  9992
2 43226   0.0171 144.8179 0000467 320.8870 358.0465  1.00271372 22982
FENGYUN 2H              
1 43491U 18050A   24156.90913554 -.00000126  00000+0  00000+0 0  9997
2 43491   1.1123  87.3752 0001371  36.4644 176.6058  1.00270056 21997
METOP-C                 
1 43689U 18087A   24157.17518070  .00000237  00000+0  12848-3 0  9999
2 43689  98.7238 216.5918 0003161 113.5236 246.6274 14.21483734289415
GEO-KOMPSAT-2A          
1 43823U 18100A   24156.75224883 -.00000340  00000+0  00000+0 0  9993
2 43823   0.0642 128.6126 0001691 309.1863 214.9482  1.00271161 20187
METEOR-M2 2             
1 44387U 19038A   24157.20465278  .00000078  00000+0  53661-4 0  9999
2 44387  98.8261 126.3819 0001735  38.9234 321.2069 14.23890988255688
ARKTIKA-M 1             
1 47719U 21016A   24149.81169147  .00000179  00000+0  00000+0 0  9990
2 47719  63.1390 153.9932 6934974 268.7385  17.9747  2.00613533 23761
FENGYUN 3E              
1 49008U 21062A   24157.22585838  .00000037  00000+0  38344-4 0  9997
2 49008  98.7317 158.6660 0002715  76.3632 283.7847 14.19756704151293
GOES 18                 
1 51850U 22021A   24156.96194976  .00000100  00000+0  00000+0 0  9994
2 51850   0.0315 144.2554 0000112 222.2363  96.6739  1.00270984  8367
NOAA 21 (JPSS-2)        
1 54234U 22150A   24156.90118157  .00000183  00000+0  10789-3 0  9997
2 54234  98.7517  94.9395 0001345 121.2908 238.8400 14.19521523 81234
METEOSAT-12 (MTG-I1)    
1 54743U 22170C   24156.91753868 -.00000005  00000+0  00000+0 0  9994
2 54743   0.4932  38.7057 0001522  37.3562 147.5473  1.00271093  5536
TIANMU-1 03             
1 55973U 23039A   24157.19437404  .00011868  00000+0  49716-3 0  9990
2 55973  97.4703 307.8703 0009258 191.8448 289.8484 15.23650297 67026
TIANMU-1 04             
1 55974U 23039B   24156.56470686  .00012080  00000+0  50227-3 0  9996
2 55974  97.4591 306.8179 0010311 190.0182 170.0851 15.23889962 66926
TIANMU-1 05             
1 55975U 23039C   24157.13941168  .00008405  00000+0  35369-3 0  9995
2 55975  97.4639 307.7085 0008241 196.4692 163.6278 15.23604325 67000
TIANMU-1 06             
1 55976U 23039D   24156.40061328  .00011613  00000+0  48054-3 0  9996
2 55976  97.4652 307.0892 0009298 194.5689 165.5282 15.24070638 66890
METEOR-M2 3             
1 57166U 23091A   24157.16961471  .00000058  00000+0  44709-4 0  9994
2 57166  98.7132 211.9505 0004497 151.0628 209.0800 14.23896776 48911
TIANMU-1 07             
1 57399U 23101A   24157.15712408  .00008120  00000+0  41411-3 0  9991
2 57399  97.3640 214.6484 0004171 211.6828 148.4155 15.16993099 48602
TIANMU-1 08             
1 57400U 23101B   24157.19255774  .00006741  00000+0  34421-3 0  9996
2 57400  97.3627 214.5574 0006265 224.6499 135.4231 15.17004022 48604
TIANMU-1 09             
1 57401U 23101C   24157.17526206  .00007684  00000+0  39208-3 0  9991
2 57401  97.3583 214.3906 0006791 220.4504 139.6225 15.16978166 48605
TIANMU-1 10             
1 57402U 23101D   24157.14125790  .00007683  00000+0  39211-3 0  9995
2 57402  97.3663 214.6206 0008939 221.2520 138.8038 15.16958018 48599
FENGYUN 3F              
1 57490U 23111A   24157.18077943  .00000148  00000+0  90821-4 0  9997
2 57490  98.7699 226.4224 0001952 107.4869 252.6520 14.19821656 43562
ARKTIKA-M 2             
1 58584U 23198A   24150.54092015  .00000097  00000+0  00000+0 0  9995
2 58584  63.2567 237.8215 6994653 269.8808  17.1194  2.00608837  3305
TIANMU-1 11             
1 58645U 23205A   24157.16471803  .00006918  00000+0  37358-3 0  9991
2 58645  97.4030 182.5657 0013346  88.0315 272.2445 15.14955725 24690
